{"fetched_at":"2026-07-20T18:28:52.300Z","source":"https://celestrak.org/NORAD/elements/gp.php?GROUP=oneweb&FORMAT=JSON","constellation":"oneweb","records":[{"OBJECT_NAME":"ONEWEB-0060","OBJECT_ID":"2020-020AH","EPOCH":"2026-07-20T05:01:38.944128","CLASSIFICATION_TYPE":"U","MEAN_MOTION":13.11417426,"ECCENTRICITY":0.00014409,"INCLINATION":87.889,"RA_OF_ASC_NODE":14.4908,"ARG_OF_PERICENTER":125.3841,"MEAN_ANOMALY":234.7422,"EPHEMERIS_TYPE":0,"NORAD_CAT_ID":45455,"ELEMENT_SET_NO":999,"REV_AT_EPOCH":30687,"BSTAR":-0.0014217328,"MEAN_MOTION_DOT":-0.00000491,"MEAN_MOTION_DDOT":0},{"OBJECT_NAME":"ONEWEB-0086","OBJECT_ID":"2020-020AJ","EPOCH":"2026-07-20T04:30:55.562112","CLASSIFICATION_TYPE":"U","MEAN_MOTION":13.11415898,"ECCENTRICITY":0.0002025,"INCLINATION":87.8895,"RA_OF_ASC_NODE":14.4929,"ARG_OF_PERICENTER":114.4322,"MEAN_ANOMALY":245.7017,"EPHEMERIS_TYPE":0,"NORAD_CAT_ID":45456,"ELEMENT_SET_NO":999,"REV_AT_EPOCH":30693,"BSTAR":-0.00060606238,"MEAN_MOTION_DOT":-0.00000202,"MEAN_MOTION_DDOT":0},{"OBJECT_NAME":"ONEWEB-0088","OBJECT_ID":"2020-020AK","EPOCH":"2026-07-20T05:49:15.643488","CLASSIFICATION_TYPE":"U","MEAN_MOTION":13.11416401,"ECCENTRICITY":0.00016184,"INCLINATION":87.8904,"RA_OF_ASC_NODE":14.4573,"ARG_OF_PERICENTER":79.5838,"MEAN_ANOMALY":280.5473,"EPHEMERIS_TYPE":0,"NORAD_CAT_ID":45457,"ELEMENT_SET_NO":999,"REV_AT_EPOCH":30687,"BSTAR":0.0015122118,"MEAN_MOTION_DOT":0.00000549,"MEAN_MOTION_DDOT":0},{"OBJECT_NAME":"ONEWEB-0102","OBJECT_ID":"2020-100A","EPOCH":"2026-07-19T21:58:57.998784","CLASSIFICATION_TYPE":"U","MEAN_MOTION":13.12443976,"ECCENTRICITY":0.00020744,"INCLINATION":87.8969,"RA_OF_ASC_NODE":344.167,"ARG_OF_PERICENTER":102.882,"MEAN_ANOMALY":257.254,"EPHEMERIS_TYPE":0,"NORAD_CAT_ID":47258,"ELEMENT_SET_NO":999,"REV_AT_EPOCH":26902,"BSTAR":0.00084244698,"MEAN_MOTION_DOT":0.00000316,"MEAN_MOTION_DDOT":0},{"OBJECT_NAME":"ONEWEB-0109","OBJECT_ID":"2020-100B","EPOCH":"2026-07-19T22:11:09.850848","CLASSIFICATION_TYPE":"U","MEAN_MOTION":13.12443834,"ECCENTRICITY":0.00019963,"INCLINATION":87.8978,"RA_OF_ASC_NODE":344.1517,"ARG_OF_PERICENTER":96.3859,"MEAN_ANOMALY":263.7497,"EPHEMERIS_TYPE":0,"NORAD_CAT_ID":47259,"ELEMENT_SET_NO":999,"REV_AT_EPOCH":26885,"BSTAR":0.0011035501,"MEAN_MOTION_DOT":0.0000041,"MEAN_MOTION_DDOT":0},{"OBJECT_NAME":"ONEWEB-0110","OBJECT_ID":"2020-100C","EPOCH":"2026-07-19T22:50:12.055488","CLASSIFICATION_TYPE":"U","MEAN_MOTION":13.12442323,"ECCENTRICITY":0.00018819,"INCLINATION":87.8977,"RA_OF_ASC_NODE":344.1304,"ARG_OF_PERICENTER":106.5318,"MEAN_ANOMALY":253.6018,"EPHEMERIS_TYPE":0,"NORAD_CAT_ID":47260,"ELEMENT_SET_NO":999,"REV_AT_EPOCH":26902,"BSTAR":-0.00068081754,"MEAN_MOTION_DOT":-0.00000232,"MEAN_MOTION_DDOT":0},{"OBJECT_NAME":"ONEWEB-0111","OBJECT_ID":"2020-100D","EPOCH":"2026-07-20T03:13:40.209024","CLASSIFICATION_TYPE":"U","MEAN_MOTION":13.12443955,"ECCENTRICITY":0.0001771,"INCLINATION":87.8976,"RA_OF_ASC_NODE":344.1128,"ARG_OF_PERICENTER":99.3621,"MEAN_ANOMALY":260.7708,"EPHEMERIS_TYPE":0,"NORAD_CAT_ID":47261,"ELEMENT_SET_NO":999,"REV_AT_EPOCH":26888,"BSTAR":-0.00045679318,"MEAN_MOTION_DOT":-0.00000152,"MEAN_MOTION_DDOT":0},{"OBJECT_NAME":"ONEWEB-0114","OBJECT_ID":"2020-100E","EPOCH":"2026-07-20T07:37:09.060672","CLASSIFICATION_TYPE":"U","MEAN_MOTION":13.1244274,"ECCENTRICITY":0.00020731,"INCLINATION":87.8981,"RA_OF_ASC_NODE":344.0744,"ARG_OF_PERICENTER":96.2564,"MEAN_ANOMALY":263.88,"EPHEMERIS_TYPE":0,"NORAD_CAT_ID":47262,"ELEMENT_SET_NO":999,"REV_AT_EPOCH":26886,"BSTAR":0.00092399093,"MEAN_MOTION_DOT":0.00000345,"MEAN_MOTION_DDOT":0},{"OBJECT_NAME":"ONEWEB-0117","OBJECT_ID":"2020-100F","EPOCH":"2026-07-19T22:16:02.928288","CLASSIFICATION_TYPE":"U","MEAN_MOTION":13.12442534,"ECCENTRICITY":0.00018754,"INCLINATION":87.8978,"RA_OF_ASC_NODE":344.1415,"ARG_OF_PERICENTER":99.2474,"MEAN_ANOMALY":260.8867,"EPHEMERIS_TYPE":0,"NORAD_CAT_ID":47263,"ELEMENT_SET_NO":999,"REV_AT_EPOCH":26882,"BSTAR":0.001130504,"MEAN_MOTION_DOT":0.00000419,"MEAN_MOTION_DDOT":0},{"OBJECT_NAME":"ONEWEB-0118","OBJECT_ID":"2020-100G","EPOCH":"2026-07-19T21:15:03.056256","CLASSIFICATION_TYPE":"U","MEAN_MOTION":13.12442331,"ECCENTRICITY":0.00019067,"INCLINATION":87.8976,"RA_OF_ASC_NODE":344.1527,"ARG_OF_PERICENTER":87.1473,"MEAN_ANOMALY":272.9874,"EPHEMERIS_TYPE":0,"NORAD_CAT_ID":47264,"ELEMENT_SET_NO":999,"REV_AT_EPOCH":26901,"BSTAR":-0.0013253604,"MEAN_MOTION_DOT":-0.00000464,"MEAN_MOTION_DDOT":0},{"OBJECT_NAME":"ONEWEB-0119","OBJECT_ID":"2020-100H","EPOCH":"2026-07-19T21:51:39.178368","CLASSIFICATION_TYPE":"U","MEAN_MOTION":13.12443264,"ECCENTRICITY":0.00018932,"INCLINATION":87.8966,"RA_OF_ASC_NODE":344.1615,"ARG_OF_PERICENTER":96.5169,"MEAN_ANOMALY":263.6175,"EPHEMERIS_TYPE":0,"NORAD_CAT_ID":47265,"ELEMENT_SET_NO":999,"REV_AT_EPOCH":26899,"BSTAR":0.00020514393,"MEAN_MOTION_DOT":8.7e-7,"MEAN_MOTION_DDOT":0},{"OBJECT_NAME":"ONEWEB-0120","OBJECT_ID":"2020-100J","EPOCH":"2026-07-20T03:55:21.167616","CLASSIFICATION_TYPE":"U","MEAN_MOTION":13.12441709,"ECCENTRICITY":0.00020433,"INCLINATION":87.8969,"RA_OF_ASC_NODE":344.113,"ARG_OF_PERICENTER":95.4528,"MEAN_ANOMALY":264.6834,"EPHEMERIS_TYPE":0,"NORAD_CAT_ID":47266,"ELEMENT_SET_NO":999,"REV_AT_EPOCH":26905,"BSTAR":0.0011130488,"MEAN_MOTION_DOT":0.00000413,"MEAN_MOTION_DDOT":0},{"OBJECT_NAME":"ONEWEB-0121","OBJECT_ID":"2020-100K","EPOCH":"2026-07-20T03:38:04.347744","CLASSIFICATION_TYPE":"U","MEAN_MOTION":13.12442648,"ECCENTRICITY":0.00016062,"INCLINATION":87.8978,"RA_OF_ASC_NODE":344.1045,"ARG_OF_PERICENTER":102.4648,"MEAN_ANOMALY":257.666,"EPHEMERIS_TYPE":0,"NORAD_CAT_ID":47267,"ELEMENT_SET_NO":999,"REV_AT_EPOCH":26896,"BSTAR":0.001043174,"MEAN_MOTION_DOT":0.00000388,"MEAN_MOTION_DDOT":0},{"OBJECT_NAME":"ONEWEB-0122","OBJECT_ID":"2020-100L","EPOCH":"2026-07-19T22:00:11.545920","CLASSIFICATION_TYPE":"U","MEAN_MOTION":13.12442414,"ECCENTRICITY":0.00020343,"INCLINATION":87.8978,"RA_OF_ASC_NODE":344.1561,"ARG_OF_PERICENTER":99.1957,"MEAN_ANOMALY":260.9401,"EPHEMERIS_TYPE":0,"NORAD_CAT_ID":47268,"ELEMENT_SET_NO":999,"REV_AT_EPOCH":26884,"BSTAR":0.00066758583,"MEAN_MOTION_DOT":0.00000253,"MEAN_MOTION_DDOT":0},{"OBJECT_NAME":"ONEWEB-0123","OBJECT_ID":"2020-100M","EPOCH":"2026-07-19T20:04:18.199200","CLASSIFICATION_TYPE":"U","MEAN_MOTION":13.12443826,"ECCENTRICITY":0.00018532,"INCLINATION":87.8966,"RA_OF_ASC_NODE":344.1756,"ARG_OF_PERICENTER":93.9402,"MEAN_ANOMALY":266.1939,"EPHEMERIS_TYPE":0,"NORAD_CAT_ID":47269,"ELEMENT_SET_NO":999,"REV_AT_EPOCH":26897,"BSTAR":0.00060758511,"MEAN_MOTION_DOT":0.00000231,"MEAN_MOTION_DDOT":0},{"OBJECT_NAME":"ONEWEB-0124","OBJECT_ID":"2020-100N","EPOCH":"2026-07-20T03:08:47.202432","CLASSIFICATION_TYPE":"U","MEAN_MOTION":13.12443467,"ECCENTRICITY":0.00017493,"INCLINATION":87.8966,"RA_OF_ASC_NODE":344.1195,"ARG_OF_PERICENTER":98.4295,"MEAN_ANOMALY":261.7031,"EPHEMERIS_TYPE":0,"NORAD_CAT_ID":47270,"ELEMENT_SET_NO":999,"REV_AT_EPOCH":26889,"BSTAR":-0.00048037781,"MEAN_MOTION_DOT":-0.0000016,"MEAN_MOTION_DDOT":0},{"OBJECT_NAME":"ONEWEB-0125","OBJECT_ID":"2020-100P","EPOCH":"2026-07-19T21:07:43.300992","CLASSIFICATION_TYPE":"U","MEAN_MOTION":13.12442223,"ECCENTRICITY":0.00015685,"INCLINATION":87.8979,"RA_OF_ASC_NODE":344.1564,"ARG_OF_PERICENTER":93.7575,"MEAN_ANOMALY":266.3733,"EPHEMERIS_TYPE":0,"NORAD_CAT_ID":47271,"ELEMENT_SET_NO":999,"REV_AT_EPOCH":26892,"BSTAR":-0.0010005208,"MEAN_MOTION_DOT":-0.00000347,"MEAN_MOTION_DDOT":0},{"OBJECT_NAME":"ONEWEB-0126","OBJECT_ID":"2020-100Q","EPOCH":"2026-07-19T21:37:13.155744","CLASSIFICATION_TYPE":"U","MEAN_MOTION":13.12443356,"ECCENTRICITY":0.00019678,"INCLINATION":87.897,"RA_OF_ASC_NODE":344.166,"ARG_OF_PERICENTER":95.2331,"MEAN_ANOMALY":264.9022,"EPHEMERIS_TYPE":0,"NORAD_CAT_ID":47272,"ELEMENT_SET_NO":999,"REV_AT_EPOCH":26899,"BSTAR":-0.00063084371,"MEAN_MOTION_DOT":-0.00000214,"MEAN_MOTION_DDOT":0},{"OBJECT_NAME":"ONEWEB-0127","OBJECT_ID":"2020-100R","EPOCH":"2026-07-19T22:37:59.738592","CLASSIFICATION_TYPE":"U","MEAN_MOTION":13.1244248,"ECCENTRICITY":0.00020069,"INCLINATION":87.8967,"RA_OF_ASC_NODE":344.1542,"ARG_OF_PERICENTER":98.2103,"MEAN_ANOMALY":261.9253,"EPHEMERIS_TYPE":0,"NORAD_CAT_ID":47273,"ELEMENT_SET_NO":999,"REV_AT_EPOCH":26902,"BSTAR":0.00024171089,"MEAN_MOTION_DOT":0.000001,"MEAN_MOTION_DDOT":0},{"OBJECT_NAME":"ONEWEB-0128","OBJECT_ID":"2020-100S","EPOCH":"2026-07-19T21:19:55.249824","CLASSIFICATION_TYPE":"U","MEAN_MOTION":13.12443366,"ECCENTRICITY":0.00018642,"INCLINATION":87.8966,"RA_OF_ASC_NODE":344.1791,"ARG_OF_PERICENTER":107.3999,"MEAN_ANOMALY":252.7334,"EPHEMERIS_TYPE":0,"NORAD_CAT_ID":47274,"ELEMENT_SET_NO":999,"REV_AT_EPOCH":26903,"BSTAR":-0.0012332881,"MEAN_MOTION_DOT":-0.00000431,"MEAN_MOTION_DDOT":0},{"OBJECT_NAME":"ONEWEB-0129","OBJECT_ID":"2020-100T","EPOCH":"2026-07-19T22:40:26.423328","CLASSIFICATION_TYPE":"U","MEAN_MOTION":13.1244187,"ECCENTRICITY":0.00029095,"INCLINATION":87.8978,"RA_OF_ASC_NODE":344.1448,"ARG_OF_PERICENTER":90.7298,"MEAN_ANOMALY":269.4164,"EPHEMERIS_TYPE":0,"NORAD_CAT_ID":47275,"ELEMENT_SET_NO":999,"REV_AT_EPOCH":26897,"BSTAR":0.00020124928,"MEAN_MOTION_DOT":8.5e-7,"MEAN_MOTION_DDOT":0},{"OBJECT_NAME":"ONEWEB-0130","OBJECT_ID":"2020-100U","EPOCH":"2026-07-20T02:59:01.862304","CLASSIFICATION_TYPE":"U","MEAN_MOTION":13.12443106,"ECCENTRICITY":0.00019607,"INCLINATION":87.898,"RA_OF_ASC_NODE":344.1054,"ARG_OF_PERICENTER":98.6482,"MEAN_ANOMALY":261.4869,"EPHEMERIS_TYPE":0,"NORAD_CAT_ID":47276,"ELEMENT_SET_NO":999,"REV_AT_EPOCH":26896,"BSTAR":-0.0011427319,"MEAN_MOTION_DOT":-0.00000398,"MEAN_MOTION_DDOT":0},{"OBJECT_NAME":"ONEWEB-0131","OBJECT_ID":"2020-100V","EPOCH":"2026-07-20T02:54:09.364608","CLASSIFICATION_TYPE":"U","MEAN_MOTION":13.12442487,"ECCENTRICITY":0.00018863,"INCLINATION":87.8966,"RA_OF_ASC_NODE":344.1206,"ARG_OF_PERICENTER":102.3654,"MEAN_ANOMALY":257.7686,"EPHEMERIS_TYPE":0,"NORAD_CAT_ID":47277,"ELEMENT_SET_NO":999,"REV_AT_EPOCH":26900,"BSTAR":-0.0013868122,"MEAN_MOTION_DOT":-0.00000486,"MEAN_MOTION_DDOT":0}]}
